,clust_dist,samples,level_1,level_2,level_3,PI_frst,PI_lstn,bp_cnt_,Gigbyts,latitud,longitd,Country,PubName,State,mtgnm_d,prjct_d,prjct_n,seq_mth,doi,bdod,cec,cfvo,clay,nitrogen,ocd,ocs,phh2o,sand,silt,soc,wv0010,wv0033,wv1500,BIO1_Annual_Mean_Temperature,BIO4_Temperature_Seasonality,BIO12_Annual_Precipitation,BIO15_Precipitation_Seasonality,LUH2_primf,LUH2_primn,LUH2_secdf,LUH2_secdn,LUH2_urban,LUH2_c3ann,LUH2_c4ann,LUH2_c3per,LUH2_c4per,LUH2_c3nfx,LUH2_pastr,LUH2_range,LUH2_secmb,LUH2_secma
1,1,DRR125227,free-living,groundwater,Porous Contaminated,Masao,Fukuda,4803585400,3.01,34.41,135.31,Japan,Japan 01,Osaka,DRR125227,PRJDB6771,Multi-omics analysis of bioaugmentation with Rhodococcus jostii RHA1,illumina,NA,NA,NA,NA,NA,NA,NA,NA,NA,NA,NA,NA,NA,NA,NA,16.2583332061768,8.55000019073486,26.4166679382324,214,0.0743872734407584,0,0.625629762808482,0,0.0169427401075761,0.127445794641972,0.0040389623803397,0.00628367338019113,0,0.00269278208725154,0.000185235774551984,9.29E-06,12.6531446774801,149.325068155924
2,2,ERR2108715,free-living,groundwater,Karst-Porous,Eugene,Madsen,2268570848,1.19,43.292222,-73.604444,USA,USA 01,NY,ERR2108715,PRJEB22302,Tracking carbon-flow from naphthalene degrading bacteria in coal-tar contaminated surface sediments and groundwater.,illumina,NA,830,830,830,209,259.833343505859,195.16667175293,64,58,332.666656494141,460.666656494141,394.833343505859,371.833343505859,311.666656494141,130.199996948242,8.09166622161865,11.9499998092651,20.3666667938232,99,0.00899274654996892,0,0.659742802381516,0,0.156685563425223,0.0600862664481004,0.0408461044232051,0.000315428905499478,0,0.0239720974738399,0.0290916174029311,0,5.58186729749044,64.8368148803711
3,3,ERR2136696,free-living,groundwater,Mine,-,It?vaara,183.5Mbp,0.072,63.659,26.046,Finland,Finland 01,PyhÃ¤jÃ¤rvi,ERR2136696,PRJEB22782,DeepHotMicrobe,illumina,NA,1054,1054,1054,99.8000030517578,386.166656494141,262.166656494141,62,50.8333320617676,608.833312988281,293,712.333312988281,386.666656494141,303.166656494141,108,2.21249985694885,7.52500009536743,14.0666666030884,81,0,0.819022645552953,0,0.0141830240997175,0.000589423308459421,0.0676471292972565,0,3.87E-06,0,0,0,1.97E-05,0.726321280002594,46.6887855529785
4,3,ERR2136697,free-living,groundwater,Mine,-,It?vaara,108.0Mbp,0.043,63.659,26.046,Finland,Finland 02,PyhÃ¤jÃ¤rvi,ERR2136697,PRJEB22782,DeepHotMicrobe,illumina,NA,1054,1054,1054,99.8000030517578,386.166656494141,262.166656494141,62,50.8333320617676,608.833312988281,293,712.333312988281,386.666656494141,303.166656494141,108,2.21249985694885,7.52500009536743,14.0666666030884,81,0,0.819022645552953,0,0.0141830240997175,0.000589423308459421,0.0676471292972565,0,3.87E-06,0,0,0,1.97E-05,0.726321280002594,46.6887855529785
5,4,ERR2191545,free-living,groundwater,Subsurface saline,-,Dopson,161Gbp,8.99,57.434,16.66,Sweden,Sweden 01,Fifeholm,ERR2191545,PRJEB10519,Aespoe aquifer metagenome,illumina,NA,NA,NA,NA,NA,NA,NA,NA,NA,NA,NA,NA,NA,NA,NA,7.00833320617676,7.98333311080933,15.8666667938232,71,0,0.297183891137441,0,0.0576160109291474,0.00158832462814947,0.00460157178652783,0,8.95E-05,0,0.000109562131304604,0.000684596114297165,0,0,271.967224121094
6,4,ERR2191546,free-living,groundwater,Subsurface saline,-,Dopson,169Gbp,9.48,57.434,16.66,Sweden,Sweden 02,Fifeholm,ERR2191546,PRJEB10519,Aespoe aquifer metagenome,illumina,NA,NA,NA,NA,NA,NA,NA,NA,NA,NA,NA,NA,NA,NA,NA,7.00833320617676,7.98333311080933,15.8666667938232,71,0,0.297183891137441,0,0.0576160109291474,0.00158832462814947,0.00460157178652783,0,8.95E-05,0,0.000109562131304604,0.000684596114297165,0,0,271.967224121094
7,5,mgm4441834,free-living,groundwater,Porous,folker,meyer,58033228,-,39.538602,-107.723908,USA,USA 02,Colorado,mgm4441834,mgp119,subsurface rifle,454,NA,258,258,258,340.600006103516,137.33332824707,147.33332824707,44,80.1666641235352,251.83332824707,407.166656494141,108.333335876465,374,335.666656494141,186.600006103516,8.79166698455811,18.3999996185303,20.1499996185303,37,0,0.519150803486506,0,0.14854705085357,0.00030924904422136,0.04174796367685,0,0,0,0.16513096789519,0.0701673403382301,0.0549466274678707,0.612199425697327,26.0665607452393
8,5,mgm4441835,free-living,groundwater,Porous,folker,meyer,47498987,-,39.538602,-107.723908,USA,USA 03,Colorado,mgm4441835,mgp119,subsurface rifle,454,NA,258,258,258,340.600006103516,137.33332824707,147.33332824707,44,80.1666641235352,251.83332824707,407.166656494141,108.333335876465,374,335.666656494141,186.600006103516,8.79166698455811,18.3999996185303,20.1499996185303,37,0,0.519150803486506,0,0.14854705085357,0.00030924904422136,0.04174796367685,0,0,0,0.16513096789519,0.0701673403382301,0.0549466274678707,0.612199425697327,26.0665607452393
9,5,mgm4442086,free-living,groundwater,Porous,folker,meyer,70244682,-,39.538602,-107.723908,USA,USA 04,Colorado,mgm4442086,mgp119,subsurface rifle,454,NA,258,258,258,340.600006103516,137.33332824707,147.33332824707,44,80.1666641235352,251.83332824707,407.166656494141,108.333335876465,374,335.666656494141,186.600006103516,8.79166698455811,18.3999996185303,20.1499996185303,37,0,0.519150803486506,0,0.14854705085357,0.00030924904422136,0.04174796367685,0,0,0,0.16513096789519,0.0701673403382301,0.0549466274678707,0.612199425697327,26.0665607452393
10,2,mgm4739174,free-living,groundwater,Karst-Porous,-,Madsen,2070441812,0.213,43.292,-73.604,USA,USA 05,NY,mgm4739174,mgp79605,Sip Napthalene in Groundwater,illumina,NA,830,830,830,209,259.833343505859,195.16667175293,64,58,332.666656494141,460.666656494141,394.833343505859,371.833343505859,311.666656494141,130.199996948242,8.09166622161865,11.9499998092651,20.3666667938232,99,0.00899274654996892,0,0.659742802381516,0,0.156685563425223,0.0600862664481004,0.0408461044232051,0.000315428905499478,0,0.0239720974738399,0.0290916174029311,0,5.58186729749044,64.8368148803711
11,2,mgm4739175,free-living,groundwater,Karst-Porous,-,Madsen,1920259681,0.825,43.292,-73.604,USA,USA 06,NY,mgm4739175,mgp79605,Sip Napthalene in Groundwater,illumina,NA,830,830,830,209,259.833343505859,195.16667175293,64,58,332.666656494141,460.666656494141,394.833343505859,371.833343505859,311.666656494141,130.199996948242,8.09166622161865,11.9499998092651,20.3666667938232,99,0.00899274654996892,0,0.659742802381516,0,0.156685563425223,0.0600862664481004,0.0408461044232051,0.000315428905499478,0,0.0239720974738399,0.0290916174029311,0,5.58186729749044,64.8368148803711
12,2,mgm4739176,free-living,groundwater,Karst-Porous,-,Madsen,1365856515,0.517,43.292,-73.604,USA,USA 07,NY,mgm4739176,mgp79605,Sip Napthalene in Groundwater,illumina,NA,830,830,830,209,259.833343505859,195.16667175293,64,58,332.666656494141,460.666656494141,394.833343505859,371.833343505859,311.666656494141,130.199996948242,8.09166622161865,11.9499998092651,20.3666667938232,99,0.00899274654996892,0,0.659742802381516,0,0.156685563425223,0.0600862664481004,0.0408461044232051,0.000315428905499478,0,0.0239720974738399,0.0290916174029311,0,5.58186729749044,64.8368148803711
13,2,mgm4739177,free-living,groundwater,Karst-Porous,-,Madsen,1960816052,19,43.292,-73.604,USA,USA 08,NY,mgm4739177,mgp79605,Sip Napthalene in Groundwater,illumina,NA,830,830,830,209,259.833343505859,195.16667175293,64,58,332.666656494141,460.666656494141,394.833343505859,371.833343505859,311.666656494141,130.199996948242,8.09166622161865,11.9499998092651,20.3666667938232,99,0.00899274654996892,0,0.659742802381516,0,0.156685563425223,0.0600862664481004,0.0408461044232051,0.000315428905499478,0,0.0239720974738399,0.0290916174029311,0,5.58186729749044,64.8368148803711
14,2,mgm4739178,free-living,groundwater,Karst-Porous,-,Madsen,1632232900,0.121,43.292,-73.604,USA,USA 09,NY,mgm4739178,mgp79605,Sip Napthalene in Groundwater,illumina,NA,830,830,830,209,259.833343505859,195.16667175293,64,58,332.666656494141,460.666656494141,394.833343505859,371.833343505859,311.666656494141,130.199996948242,8.09166622161865,11.9499998092651,20.3666667938232,99,0.00899274654996892,0,0.659742802381516,0,0.156685563425223,0.0600862664481004,0.0408461044232051,0.000315428905499478,0,0.0239720974738399,0.0290916174029311,0,5.58186729749044,64.8368148803711
15,2,mgm4739179,free-living,groundwater,Karst-Porous,-,Madsen,1848538929,0.459,43.292,-73.604,USA,USA 10,NY,mgm4739179,mgp79605,Sip Napthalene in Groundwater,illumina,NA,830,830,830,209,259.833343505859,195.16667175293,64,58,332.666656494141,460.666656494141,394.833343505859,371.833343505859,311.666656494141,130.199996948242,8.09166622161865,11.9499998092651,20.3666667938232,99,0.00899274654996892,0,0.659742802381516,0,0.156685563425223,0.0600862664481004,0.0408461044232051,0.000315428905499478,0,0.0239720974738399,0.0290916174029311,0,5.58186729749044,64.8368148803711
16,2,mgm4739180,free-living,groundwater,Karst-Porous,-,Madsen,29705681259,0.272,43.292,-73.604,USA,USA 11,NY,mgm4739180,mgp79605,Sip Napthalene in Groundwater,illumina,NA,830,830,830,209,259.833343505859,195.16667175293,64,58,332.666656494141,460.666656494141,394.833343505859,371.833343505859,311.666656494141,130.199996948242,8.09166622161865,11.9499998092651,20.3666667938232,99,0.00899274654996892,0,0.659742802381516,0,0.156685563425223,0.0600862664481004,0.0408461044232051,0.000315428905499478,0,0.0239720974738399,0.0290916174029311,0,5.58186729749044,64.8368148803711
17,2,mgm4739181,free-living,groundwater,Karst-Porous,-,Madsen,2174037690,0.771,43.292,-73.604,USA,USA 12,NY,mgm4739181,mgp79605,Sip Napthalene in Groundwater,illumina,NA,830,830,830,209,259.833343505859,195.16667175293,64,58,332.666656494141,460.666656494141,394.833343505859,371.833343505859,311.666656494141,130.199996948242,8.09166622161865,11.9499998092651,20.3666667938232,99,0.00899274654996892,0,0.659742802381516,0,0.156685563425223,0.0600862664481004,0.0408461044232051,0.000315428905499478,0,0.0239720974738399,0.0290916174029311,0,5.58186729749044,64.8368148803711
18,2,mgm4739182,free-living,groundwater,Karst-Porous,-,Madsen,1854668124,0.999,43.292,-73.604,USA,USA 13,NY,mgm4739182,mgp79605,Sip Napthalene in Groundwater,illumina,NA,830,830,830,209,259.833343505859,195.16667175293,64,58,332.666656494141,460.666656494141,394.833343505859,371.833343505859,311.666656494141,130.199996948242,8.09166622161865,11.9499998092651,20.3666667938232,99,0.00899274654996892,0,0.659742802381516,0,0.156685563425223,0.0600862664481004,0.0408461044232051,0.000315428905499478,0,0.0239720974738399,0.0290916174029311,0,5.58186729749044,64.8368148803711
19,2,mgm4739183,free-living,groundwater,Karst-Porous,-,Madsen,30651469192,0.289,43.292,-73.604,USA,USA 14,NY,mgm4739183,mgp79605,Sip Napthalene in Groundwater,illumina,NA,830,830,830,209,259.833343505859,195.16667175293,64,58,332.666656494141,460.666656494141,394.833343505859,371.833343505859,311.666656494141,130.199996948242,8.09166622161865,11.9499998092651,20.3666667938232,99,0.00899274654996892,0,0.659742802381516,0,0.156685563425223,0.0600862664481004,0.0408461044232051,0.000315428905499478,0,0.0239720974738399,0.0290916174029311,0,5.58186729749044,64.8368148803711
20,2,mgm4739184,free-living,groundwater,Karst-Porous,-,Madsen,1937429216,0.247,43.292,-73.604,USA,USA 15,NY,mgm4739184,mgp79605,Sip Napthalene in Groundwater,illumina,NA,830,830,830,209,259.833343505859,195.16667175293,64,58,332.666656494141,460.666656494141,394.833343505859,371.833343505859,311.666656494141,130.199996948242,8.09166622161865,11.9499998092651,20.3666667938232,99,0.00899274654996892,0,0.659742802381516,0,0.156685563425223,0.0600862664481004,0.0408461044232051,0.000315428905499478,0,0.0239720974738399,0.0290916174029311,0,5.58186729749044,64.8368148803711
21,2,mgm4739185,free-living,groundwater,Karst-Porous,-,Madsen,1878441989,0.865,43.292,-73.604,USA,USA 16,NY,mgm4739185,mgp79605,Sip Napthalene in Groundwater,illumina,NA,830,830,830,209,259.833343505859,195.16667175293,64,58,332.666656494141,460.666656494141,394.833343505859,371.833343505859,311.666656494141,130.199996948242,8.09166622161865,11.9499998092651,20.3666667938232,99,0.00899274654996892,0,0.659742802381516,0,0.156685563425223,0.0600862664481004,0.0408461044232051,0.000315428905499478,0,0.0239720974738399,0.0290916174029311,0,5.58186729749044,64.8368148803711
22,2,mgm4739186,free-living,groundwater,Karst-Porous,-,Madsen,2356200628,0.943,43.292,-73.604,USA,USA 17,NY,mgm4739186,mgp79605,Sip Napthalene in Groundwater,illumina,NA,830,830,830,209,259.833343505859,195.16667175293,64,58,332.666656494141,460.666656494141,394.833343505859,371.833343505859,311.666656494141,130.199996948242,8.09166622161865,11.9499998092651,20.3666667938232,99,0.00899274654996892,0,0.659742802381516,0,0.156685563425223,0.0600862664481004,0.0408461044232051,0.000315428905499478,0,0.0239720974738399,0.0290916174029311,0,5.58186729749044,64.8368148803711
23,2,mgm4739187,free-living,groundwater,Karst-Porous,-,Madsen,30150388807,0.281,43.292,-73.604,USA,USA 18,NY,mgm4739187,mgp79605,Sip Napthalene in Groundwater,illumina,NA,830,830,830,209,259.833343505859,195.16667175293,64,58,332.666656494141,460.666656494141,394.833343505859,371.833343505859,311.666656494141,130.199996948242,8.09166622161865,11.9499998092651,20.3666667938232,99,0.00899274654996892,0,0.659742802381516,0,0.156685563425223,0.0600862664481004,0.0408461044232051,0.000315428905499478,0,0.0239720974738399,0.0290916174029311,0,5.58186729749044,64.8368148803711
24,2,mgm4739188,free-living,groundwater,Karst-Porous,-,Madsen,2121786915,0.371,43.292,-73.604,USA,USA 19,NY,mgm4739188,mgp79605,Sip Napthalene in Groundwater,illumina,NA,830,830,830,209,259.833343505859,195.16667175293,64,58,332.666656494141,460.666656494141,394.833343505859,371.833343505859,311.666656494141,130.199996948242,8.09166622161865,11.9499998092651,20.3666667938232,99,0.00899274654996892,0,0.659742802381516,0,0.156685563425223,0.0600862664481004,0.0408461044232051,0.000315428905499478,0,0.0239720974738399,0.0290916174029311,0,5.58186729749044,64.8368148803711
25,2,mgm4739189,free-living,groundwater,Karst-Porous,-,Madsen,2266066821,0.898,43.292,-73.604,USA,USA 20,NY,mgm4739189,mgp79605,Sip Napthalene in Groundwater,illumina,NA,830,830,830,209,259.833343505859,195.16667175293,64,58,332.666656494141,460.666656494141,394.833343505859,371.833343505859,311.666656494141,130.199996948242,8.09166622161865,11.9499998092651,20.3666667938232,99,0.00899274654996892,0,0.659742802381516,0,0.156685563425223,0.0600862664481004,0.0408461044232051,0.000315428905499478,0,0.0239720974738399,0.0290916174029311,0,5.58186729749044,64.8368148803711
26,6,SRR1556897,free-living,groundwater,Geyser,-,Emerson,2.0Gbp,1.14,38.938,-110.135,USA,USA 21,Utah,SRR1556897,PRJNA229517,Crystal Geyser Metagenome,illumina,NA,101,101,101,168.600006103516,61.8333320617676,54.8333320617676,8,83.3333358764648,512.5,316.833343505859,NA,294.666656494141,229.83332824707,123.199996948242,11.875,18.0833339691162,24.7333335876465,25,0,0.333496153354645,0,0.074790654083093,6.40E-06,0.00255553160483638,0.00211127680571129,9.65E-05,2.11E-05,0.00165200146147981,0,0.585270414749781,0.329818656047185,54.2155596415202
27,7,SRR1573679,free-living,groundwater,Porous Contaminated,-,Zhou,2436664090,1.45,36.12,-84.25,USA,USA 22,Tennessee,SRR1573679,PRJNA258175,Oak Ridge Integrated Field Research Challenge (OR-IFRC) Metagenomes,illumina,NA,372,372,372,250.199996948242,147,179,55,49.5,357.666656494141,391,201.33332824707,366.333343505859,323,158.600006103516,13.2708330154419,13.0749998092651,22.8666667938232,126,0.00526108821698775,0,0.483680695295334,0,0.0628677004327377,0.150451915959517,0.00508712984931966,0,0,0.00214273789121459,0.288042932748795,0,8.28211768468221,58.0885314941406
28,8,SRR1573952,free-living,groundwater,Porous Contaminated,-,Zhou,12982100760,8.59,35.94,-84.34,USA,USA 23,Tennessee,SRR1573952,PRJNA258175,Oak Ridge Integrated Field Research Challenge (OR-IFRC) Metagenomes,illumina,NA,295,295,295,327.799987792969,109.833335876465,150.33332824707,41,54,298.333343505859,366.833343505859,129.33332824707,356.833343505859,313.333343505859,195.399993896484,13.9583330154419,13.1499996185303,23.7999992370605,130,0.0034942152366663,0,0.413850888609886,0,0.0299522314841549,0.142309591174126,0.00696681789122522,0,0,0.00418110370325545,0.387691790858905,3.19E-09,8.33931843439738,59.2115650177002
29,8,SRR1573955,free-living,groundwater,Porous Contaminated,-,Zhou,1633055303,0.972,35.94,-84.34,USA,USA 24,Tennessee,SRR1573955,PRJNA258175,Oak Ridge Integrated Field Research Challenge (OR-IFRC) Metagenomes,illumina,NA,295,295,295,327.799987792969,109.833335876465,150.33332824707,41,54,298.333343505859,366.833343505859,129.33332824707,356.833343505859,313.333343505859,195.399993896484,13.9583330154419,13.1499996185303,23.7999992370605,130,0.0034942152366663,0,0.413850888609886,0,0.0299522314841549,0.142309591174126,0.00696681789122522,0,0,0.00418110370325545,0.387691790858905,3.19E-09,8.33931843439738,59.2115650177002
30,8,SRR1573960,free-living,groundwater,Porous Contaminated,-,Zhou,1870638887,1.01,35.94,-84.34,USA,USA 25,Tennessee,SRR1573960,PRJNA258175,Oak Ridge Integrated Field Research Challenge (OR-IFRC) Metagenomes,illumina,NA,295,295,295,327.799987792969,109.833335876465,150.33332824707,41,54,298.333343505859,366.833343505859,129.33332824707,356.833343505859,313.333343505859,195.399993896484,13.9583330154419,13.1499996185303,23.7999992370605,130,0.0034942152366663,0,0.413850888609886,0,0.0299522314841549,0.142309591174126,0.00696681789122522,0,0,0.00418110370325545,0.387691790858905,3.19E-09,8.33931843439738,59.2115650177002
31,9,SRR1633224,free-living,groundwater,Mine,-,Morrison,6851765160,4.12,-26.416806,27.427222,South Africa,South Africa 01,Carletonville,SRR1633224,PRJNA265029,MIMS Environmental/Metagenome sample from deep subsurface fracture water,illumina,NA,142,142,142,226.399993896484,87.8333358764648,119.166664123535,43,60.1666679382324,648.833312988281,120.666664123535,184.16667175293,334.666656494141,301.833343505859,101,15.4499998092651,14.283332824707,20,127,0,0.00627766666002572,0,0.447025711337725,0.00501956899339954,0.0319138237585624,0.110651396214962,0.00260054095027347,0,0.00555527637091776,0,0.390956004460653,0.703580170869827,9.81143697102865
32,10,SRR1658343,free-living,groundwater,Porous Contaminated,-,Banfield,101Gbp,6.28,39.537,-107.783,USA,USA 26,Colorado,SRR1658343,PRJNA268031,Rifle CO metagenome from aquifer,illumina,NA,296,296,296,317.799987792969,131.66667175293,134.66667175293,49,79.6666641235352,261.5,417.5,109.333335876465,364.166656494141,320.833343505859,167.399993896484,8.88333320617676,18.25,20.466667175293,37,0,0.510049511988958,0,0.112123279521863,0.0094450949691236,0.0373473359892766,0,0,0,0.108608537664016,0.0789016634225845,0.143524542450905,0.622231175502141,32.0798454284668
33,10,SRR1658462,free-living,groundwater,Porous Contaminated,-,Banfield,177Gbp,10.59,39.537,-107.783,USA,USA 27,Colorado,SRR1658462,PRJNA268031,Rifle CO metagenome from aquifer,illumina,NA,296,296,296,317.799987792969,131.66667175293,134.66667175293,49,79.6666641235352,261.5,417.5,109.333335876465,364.166656494141,320.833343505859,167.399993896484,8.88333320617676,18.25,20.466667175293,37,0,0.510049511988958,0,0.112123279521863,0.0094450949691236,0.0373473359892766,0,0,0,0.108608537664016,0.0789016634225845,0.143524542450905,0.622231175502141,32.0798454284668
34,10,SRR1658463,free-living,groundwater,Porous Contaminated,-,Banfield,136Gbp,8.66,39.537,-107.783,USA,USA 28,Colorado,SRR1658463,PRJNA268031,Rifle CO metagenome from aquifer,illumina,NA,296,296,296,317.799987792969,131.66667175293,134.66667175293,49,79.6666641235352,261.5,417.5,109.333335876465,364.166656494141,320.833343505859,167.399993896484,8.88333320617676,18.25,20.466667175293,37,0,0.510049511988958,0,0.112123279521863,0.0094450949691236,0.0373473359892766,0,0,0,0.108608537664016,0.0789016634225845,0.143524542450905,0.622231175502141,32.0798454284668
35,10,SRR1658465,free-living,groundwater,Porous Contaminated,-,Banfield,156Gbp,9.76,39.537,-107.783,USA,USA 29,Colorado,SRR1658465,PRJNA268031,Rifle CO metagenome from aquifer,illumina,NA,296,296,296,317.799987792969,131.66667175293,134.66667175293,49,79.6666641235352,261.5,417.5,109.333335876465,364.166656494141,320.833343505859,167.399993896484,8.88333320617676,18.25,20.466667175293,37,0,0.510049511988958,0,0.112123279521863,0.0094450949691236,0.0373473359892766,0,0,0,0.108608537664016,0.0789016634225845,0.143524542450905,0.622231175502141,32.0798454284668
36,10,SRR1658468,free-living,groundwater,Porous Contaminated,-,Banfield,129Gbp,8.18,39.537,-107.783,USA,USA 30,Colorado,SRR1658468,PRJNA268031,Rifle CO metagenome from aquifer,illumina,NA,296,296,296,317.799987792969,131.66667175293,134.66667175293,49,79.6666641235352,261.5,417.5,109.333335876465,364.166656494141,320.833343505859,167.399993896484,8.88333320617676,18.25,20.466667175293,37,0,0.510049511988958,0,0.112123279521863,0.0094450949691236,0.0373473359892766,0,0,0,0.108608537664016,0.0789016634225845,0.143524542450905,0.622231175502141,32.0798454284668
37,10,SRR1658469,free-living,groundwater,Porous Contaminated,-,Banfield,115Gbp,7.16,39.537,-107.783,USA,USA 31,Colorado,SRR1658469,PRJNA268031,Rifle CO metagenome from aquifer,illumina,NA,296,296,296,317.799987792969,131.66667175293,134.66667175293,49,79.6666641235352,261.5,417.5,109.333335876465,364.166656494141,320.833343505859,167.399993896484,8.88333320617676,18.25,20.466667175293,37,0,0.510049511988958,0,0.112123279521863,0.0094450949691236,0.0373473359892766,0,0,0,0.108608537664016,0.0789016634225845,0.143524542450905,0.622231175502141,32.0798454284668
38,10,SRR1658471,free-living,groundwater,Porous Contaminated,-,Banfield,119Gbp,7.51,39.537,-107.783,USA,USA 32,Colorado,SRR1658471,PRJNA268031,Rifle CO metagenome from aquifer,illumina,NA,296,296,296,317.799987792969,131.66667175293,134.66667175293,49,79.6666641235352,261.5,417.5,109.333335876465,364.166656494141,320.833343505859,167.399993896484,8.88333320617676,18.25,20.466667175293,37,0,0.510049511988958,0,0.112123279521863,0.0094450949691236,0.0373473359892766,0,0,0,0.108608537664016,0.0789016634225845,0.143524542450905,0.622231175502141,32.0798454284668
39,10,SRR1658472,free-living,groundwater,Porous Contaminated,-,Banfield,98Gbp,6.07,39.537,-107.783,USA,USA 33,Colorado,SRR1658472,PRJNA268031,Rifle CO metagenome from aquifer,illumina,NA,296,296,296,317.799987792969,131.66667175293,134.66667175293,49,79.6666641235352,261.5,417.5,109.333335876465,364.166656494141,320.833343505859,167.399993896484,8.88333320617676,18.25,20.466667175293,37,0,0.510049511988958,0,0.112123279521863,0.0094450949691236,0.0373473359892766,0,0,0,0.108608537664016,0.0789016634225845,0.143524542450905,0.622231175502141,32.0798454284668
40,11,SRR2043728,free-living,groundwater,Porous,-,Nelson,5.7Gbp,3.34,46.371,-119.276,USA,USA 34,Washington,SRR2043728,PRJNA283788,Pacific Northwest National Laboratroy,illumina,NA,156,156,156,193,72,94,20,78.1666641235352,420.166656494141,384.833343505859,64.1666641235352,358,306.833343505859,109.599998474121,12.4833335876465,13.5,23.4833335876465,28,0,0.339969143271446,0,0.110314145684242,0.048105318720142,0.0660482347011566,0.0144590612811347,0.0136871474484603,0,0.0057555187959224,0,0.400288313627243,0.259083206454913,31.8731117248535
41,12,SRR2177362,free-living,groundwater,Porous Contaminated,-,Karaoz,11342031000,7.02,39.32,-107.46,USA,USA 35,Colorado,SRR2177362,PRJNA292723,Rifle groundwater metagenome and metatranscriptome following nitrate amendment Raw sequence reads,illumina,NA,754,754,754,198.399993896484,222.5,191.16667175293,69,60.5,434,369.5,289.5,363,321.333343505859,150.800003051758,1.97916662693024,16.3583335876465,11.9666662216187,47,0.0150000583380461,0,0.761811584234238,0,0.000230932300231264,0.0151295503601432,0.00227226053054134,0,0,0.0567266792058945,0.0228149108588696,0.12601400911808,3.62632262706757,67.9096984863281
42,12,SRR2177950,free-living,groundwater,Porous Contaminated,-,Karaoz,9872237700,6.12,39.32,-107.46,USA,USA 36,Colorado,SRR2177950,PRJNA292723,Rifle groundwater metagenome and metatranscriptome following nitrate amendment Raw sequence reads,illumina,NA,754,754,754,198.399993896484,222.5,191.16667175293,69,60.5,434,369.5,289.5,363,321.333343505859,150.800003051758,1.97916662693024,16.3583335876465,11.9666662216187,47,0.0150000583380461,0,0.761811584234238,0,0.000230932300231264,0.0151295503601432,0.00227226053054134,0,0,0.0567266792058945,0.0228149108588696,0.12601400911808,3.62632262706757,67.9096984863281
43,12,SRR2177951,free-living,groundwater,Porous Contaminated,-,Karaoz,10201949100,6.31,39.32,-107.46,USA,USA 37,Colorado,SRR2177951,PRJNA292723,Rifle groundwater metagenome and metatranscriptome following nitrate amendment Raw sequence reads,illumina,NA,754,754,754,198.399993896484,222.5,191.16667175293,69,60.5,434,369.5,289.5,363,321.333343505859,150.800003051758,1.97916662693024,16.3583335876465,11.9666662216187,47,0.0150000583380461,0,0.761811584234238,0,0.000230932300231264,0.0151295503601432,0.00227226053054134,0,0,0.0567266792058945,0.0228149108588696,0.12601400911808,3.62632262706757,67.9096984863281
44,12,SRR2177952,free-living,groundwater,Porous Contaminated,-,Karaoz,5594352600,3.5,39.32,-107.46,USA,USA 38,Colorado,SRR2177952,PRJNA292723,Rifle groundwater metagenome and metatranscriptome following nitrate amendment Raw sequence reads,illumina,NA,754,754,754,198.399993896484,222.5,191.16667175293,69,60.5,434,369.5,289.5,363,321.333343505859,150.800003051758,1.97916662693024,16.3583335876465,11.9666662216187,47,0.0150000583380461,0,0.761811584234238,0,0.000230932300231264,0.0151295503601432,0.00227226053054134,0,0,0.0567266792058945,0.0228149108588696,0.12601400911808,3.62632262706757,67.9096984863281
45,12,SRR2177953,free-living,groundwater,Porous Contaminated,-,Karaoz,8809699500,5.48,39.32,-107.46,USA,USA 39,Colorado,SRR2177953,PRJNA292723,Rifle groundwater metagenome and metatranscriptome following nitrate amendment Raw sequence reads,illumina,NA,754,754,754,198.399993896484,222.5,191.16667175293,69,60.5,434,369.5,289.5,363,321.333343505859,150.800003051758,1.97916662693024,16.3583335876465,11.9666662216187,47,0.0150000583380461,0,0.761811584234238,0,0.000230932300231264,0.0151295503601432,0.00227226053054134,0,0,0.0567266792058945,0.0228149108588696,0.12601400911808,3.62632262706757,67.9096984863281
46,12,SRR2177954,free-living,groundwater,Porous Contaminated,-,Karaoz,9474725700,5.3,39.32,-107.46,USA,USA 40,Colorado,SRR2177954,PRJNA292723,Rifle groundwater metagenome and metatranscriptome following nitrate amendment Raw sequence reads,illumina,NA,754,754,754,198.399993896484,222.5,191.16667175293,69,60.5,434,369.5,289.5,363,321.333343505859,150.800003051758,1.97916662693024,16.3583335876465,11.9666662216187,47,0.0150000583380461,0,0.761811584234238,0,0.000230932300231264,0.0151295503601432,0.00227226053054134,0,0,0.0567266792058945,0.0228149108588696,0.12601400911808,3.62632262706757,67.9096984863281
47,12,SRR2177956,free-living,groundwater,Porous Contaminated,-,Karaoz,9780589800,5.5,39.32,-107.46,USA,USA 41,Colorado,SRR2177956,PRJNA292723,Rifle groundwater metagenome and metatranscriptome following nitrate amendment Raw sequence reads,illumina,NA,754,754,754,198.399993896484,222.5,191.16667175293,69,60.5,434,369.5,289.5,363,321.333343505859,150.800003051758,1.97916662693024,16.3583335876465,11.9666662216187,47,0.0150000583380461,0,0.761811584234238,0,0.000230932300231264,0.0151295503601432,0.00227226053054134,0,0,0.0567266792058945,0.0228149108588696,0.12601400911808,3.62632262706757,67.9096984863281
48,12,SRR2177968,free-living,groundwater,Porous Contaminated,-,Karaoz,11500492500,6.46,39.32,-107.46,USA,USA 42,Colorado,SRR2177968,PRJNA292723,Rifle groundwater metagenome and metatranscriptome following nitrate amendment Raw sequence reads,illumina,NA,754,754,754,198.399993896484,222.5,191.16667175293,69,60.5,434,369.5,289.5,363,321.333343505859,150.800003051758,1.97916662693024,16.3583335876465,11.9666662216187,47,0.0150000583380461,0,0.761811584234238,0,0.000230932300231264,0.0151295503601432,0.00227226053054134,0,0,0.0567266792058945,0.0228149108588696,0.12601400911808,3.62632262706757,67.9096984863281
49,12,SRR2177986,free-living,groundwater,Porous Contaminated,-,Karaoz,10477160400,5.94,39.32,-107.46,USA,USA 43,Colorado,SRR2177986,PRJNA292723,Rifle groundwater metagenome and metatranscriptome following nitrate amendment Raw sequence reads,illumina,NA,754,754,754,198.399993896484,222.5,191.16667175293,69,60.5,434,369.5,289.5,363,321.333343505859,150.800003051758,1.97916662693024,16.3583335876465,11.9666662216187,47,0.0150000583380461,0,0.761811584234238,0,0.000230932300231264,0.0151295503601432,0.00227226053054134,0,0,0.0567266792058945,0.0228149108588696,0.12601400911808,3.62632262706757,67.9096984863281
50,10,SRR3308675,free-living,groundwater,Porous Contaminated,-,Banfield,101Gbp,6.08,39.537,-107.783,USA,USA 44,Colorado,SRR3308675,PRJNA268031,Rifle CO metagenome from aquifer,illumina,NA,296,296,296,317.799987792969,131.66667175293,134.66667175293,49,79.6666641235352,261.5,417.5,109.333335876465,364.166656494141,320.833343505859,167.399993896484,8.88333320617676,18.25,20.466667175293,37,0,0.510049511988958,0,0.112123279521863,0.0094450949691236,0.0373473359892766,0,0,0,0.108608537664016,0.0789016634225845,0.143524542450905,0.622231175502141,32.0798454284668
51,10,SRR3308741,free-living,groundwater,Porous Contaminated,-,Banfield,136Gbp,8.42,39.537,-107.783,USA,USA 45,Colorado,SRR3308741,PRJNA268031,Rifle CO metagenome from aquifer,illumina,NA,296,296,296,317.799987792969,131.66667175293,134.66667175293,49,79.6666641235352,261.5,417.5,109.333335876465,364.166656494141,320.833343505859,167.399993896484,8.88333320617676,18.25,20.466667175293,37,0,0.510049511988958,0,0.112123279521863,0.0094450949691236,0.0373473359892766,0,0,0,0.108608537664016,0.0789016634225845,0.143524542450905,0.622231175502141,32.0798454284668
52,10,SRR3309137,free-living,groundwater,Porous Contaminated,-,Banfield,156Gbp,9.48,39.537,-107.783,USA,USA 46,Colorado,SRR3309137,PRJNA268031,Rifle CO metagenome from aquifer,illumina,NA,296,296,296,317.799987792969,131.66667175293,134.66667175293,49,79.6666641235352,261.5,417.5,109.333335876465,364.166656494141,320.833343505859,167.399993896484,8.88333320617676,18.25,20.466667175293,37,0,0.510049511988958,0,0.112123279521863,0.0094450949691236,0.0373473359892766,0,0,0,0.108608537664016,0.0789016634225845,0.143524542450905,0.622231175502141,32.0798454284668
53,10,SRR3309324,free-living,groundwater,Porous Contaminated,-,Banfield,129Gbp,7.95,39.537,-107.783,USA,USA 47,Colorado,SRR3309324,PRJNA268031,Rifle CO metagenome from aquifer,illumina,NA,296,296,296,317.799987792969,131.66667175293,134.66667175293,49,79.6666641235352,261.5,417.5,109.333335876465,364.166656494141,320.833343505859,167.399993896484,8.88333320617676,18.25,20.466667175293,37,0,0.510049511988958,0,0.112123279521863,0.0094450949691236,0.0373473359892766,0,0,0,0.108608537664016,0.0789016634225845,0.143524542450905,0.622231175502141,32.0798454284668
54,10,SRR3309325,free-living,groundwater,Porous Contaminated,-,Banfield,119Gbp,7.29,39.537,-107.783,USA,USA 48,Colorado,SRR3309325,PRJNA268031,Rifle CO metagenome from aquifer,illumina,NA,296,296,296,317.799987792969,131.66667175293,134.66667175293,49,79.6666641235352,261.5,417.5,109.333335876465,364.166656494141,320.833343505859,167.399993896484,8.88333320617676,18.25,20.466667175293,37,0,0.510049511988958,0,0.112123279521863,0.0094450949691236,0.0373473359892766,0,0,0,0.108608537664016,0.0789016634225845,0.143524542450905,0.622231175502141,32.0798454284668
55,10,SRR3309326,free-living,groundwater,Porous Contaminated,-,Banfield,98Gbp,5.88,39.537,-107.783,USA,USA 49,Colorado,SRR3309326,PRJNA268031,Rifle CO metagenome from aquifer,illumina,NA,296,296,296,317.799987792969,131.66667175293,134.66667175293,49,79.6666641235352,261.5,417.5,109.333335876465,364.166656494141,320.833343505859,167.399993896484,8.88333320617676,18.25,20.466667175293,37,0,0.510049511988958,0,0.112123279521863,0.0094450949691236,0.0373473359892766,0,0,0,0.108608537664016,0.0789016634225845,0.143524542450905,0.622231175502141,32.0798454284668
56,10,SRR3309327,free-living,groundwater,Porous Contaminated,-,Banfield,115Gbp,6.95,39.537,-107.783,USA,USA 50,Colorado,SRR3309327,PRJNA268031,Rifle CO metagenome from aquifer,illumina,NA,296,296,296,317.799987792969,131.66667175293,134.66667175293,49,79.6666641235352,261.5,417.5,109.333335876465,364.166656494141,320.833343505859,167.399993896484,8.88333320617676,18.25,20.466667175293,37,0,0.510049511988958,0,0.112123279521863,0.0094450949691236,0.0373473359892766,0,0,0,0.108608537664016,0.0789016634225845,0.143524542450905,0.622231175502141,32.0798454284668
57,13,SRR3546449,free-living,groundwater,Subsurface saline,-,Hernsdorf,16383866628,11.54,45.045278,141.859444,Japan,Japan 02,Hokkaido,SRR3546449,PRJNA321556,groundwater metagenome,illumina,NA,956,956,956,328.799987792969,464.333343505859,338,98,55.8333320617676,351.666656494141,315.333343505859,441,418.333343505859,371.166656494141,179.800003051758,5.8125,6.52499961853027,17.4833335876465,137,0.12877581268549,0,0.744851768016815,0,7.54E-07,0.126371654371421,0,0,0,0,0,0,6.67022975285848,202.219891866048
58,13,SRR3546450,free-living,groundwater,Subsurface saline,-,Hernsdorf,14596626702,10.37,45.045278,141.859444,Japan,Japan 03,Hokkaido,SRR3546450,PRJNA321556,groundwater metagenome,illumina,NA,956,956,956,328.799987792969,464.333343505859,338,98,55.8333320617676,351.666656494141,315.333343505859,441,418.333343505859,371.166656494141,179.800003051758,5.8125,6.52499961853027,17.4833335876465,137,0.12877581268549,0,0.744851768016815,0,7.54E-07,0.126371654371421,0,0,0,0,0,0,6.67022975285848,202.219891866048
59,13,SRR3546451,free-living,groundwater,Subsurface saline,-,Hernsdorf,14317900332,10.35,45.045278,141.859444,Japan,Japan 04,Hokkaido,SRR3546451,PRJNA321556,groundwater metagenome,illumina,NA,956,956,956,328.799987792969,464.333343505859,338,98,55.8333320617676,351.666656494141,315.333343505859,441,418.333343505859,371.166656494141,179.800003051758,5.8125,6.52499961853027,17.4833335876465,137,0.12877581268549,0,0.744851768016815,0,7.54E-07,0.126371654371421,0,0,0,0,0,0,6.67022975285848,202.219891866048
60,13,SRR3546453,free-living,groundwater,Subsurface saline,-,Hernsdorf,13024692542,8.42,45.045278,141.859444,Japan,Japan 05,Hokkaido,SRR3546453,PRJNA321556,groundwater metagenome,illumina,NA,956,956,956,328.799987792969,464.333343505859,338,98,55.8333320617676,351.666656494141,315.333343505859,441,418.333343505859,371.166656494141,179.800003051758,5.8125,6.52499961853027,17.4833335876465,137,0.12877581268549,0,0.744851768016815,0,7.54E-07,0.126371654371421,0,0,0,0,0,0,6.67022975285848,202.219891866048
61,13,SRR3546454,free-living,groundwater,Subsurface saline,-,Hernsdorf,12822183120,8.24,45.045278,141.859444,Japan,Japan 06,Hokkaido,SRR3546454,PRJNA321556,groundwater metagenome,illumina,NA,956,956,956,328.799987792969,464.333343505859,338,98,55.8333320617676,351.666656494141,315.333343505859,441,418.333343505859,371.166656494141,179.800003051758,5.8125,6.52499961853027,17.4833335876465,137,0.12877581268549,0,0.744851768016815,0,7.54E-07,0.126371654371421,0,0,0,0,0,0,6.67022975285848,202.219891866048
62,13,SRR3546455,free-living,groundwater,Subsurface saline,-,Hernsdorf,12850470856,8.42,45.045278,141.859444,Japan,Japan 07,Hokkaido,SRR3546455,PRJNA321556,groundwater metagenome,illumina,NA,956,956,956,328.799987792969,464.333343505859,338,98,55.8333320617676,351.666656494141,315.333343505859,441,418.333343505859,371.166656494141,179.800003051758,5.8125,6.52499961853027,17.4833335876465,137,0.12877581268549,0,0.744851768016815,0,7.54E-07,0.126371654371421,0,0,0,0,0,0,6.67022975285848,202.219891866048
63,13,SRR3546457,free-living,groundwater,Subsurface saline,-,Hernsdorf,14630663310,9.16,45.05,141.86,Japan,Japan 08,Hokkaido,SRR3546457,PRJNA321556,groundwater metagenome,illumina,NA,956,956,956,328.799987792969,464.333343505859,338,98,55.8333320617676,351.666656494141,315.333343505859,441,418.333343505859,371.166656494141,179.800003051758,5.8125,6.52499961853027,17.4833335876465,137,0.12877581268549,0,0.744851768016815,0,7.54E-07,0.126371654371421,0,0,0,0,0,0,6.67022975285848,202.219891866048
64,10,SRR3989308,free-living,groundwater,Porous Contaminated,-,Banfield,6604916700,3.92,39.53,-107.78,USA,USA 51,Colorado,SRR3989308,PRJNA330340,"Groundwater microbial communities from Rifle, Colorado - Rifle Oxygen_injection A2 metagenome",illumina,NA,243,243,243,304.399993896484,119,138.16667175293,40,79.8333358764648,263.166656494141,430,113.5,366,326.666656494141,171.399993896484,8.93333339691162,18.1166667938232,20.5499992370605,36,0,0.510049511988958,0,0.112123279521863,0.0094450949691236,0.0373473359892766,0,0,0,0.108608537664016,0.0789016634225845,0.143524542450905,0.622231175502141,32.0798454284668
65,10,SRR3989310,free-living,groundwater,Porous Contaminated,-,Banfield,4580659800,2.71,39.53,-107.78,USA,USA 52,Colorado,SRR3989310,PRJNA330351,"Groundwater microbial communities from Rifle, Colorado - Rifle Oxygen_injection B3 metagenome",illumina,NA,243,243,243,304.399993896484,119,138.16667175293,40,79.8333358764648,263.166656494141,430,113.5,366,326.666656494141,171.399993896484,8.93333339691162,18.1166667938232,20.5499992370605,36,0,0.510049511988958,0,0.112123279521863,0.0094450949691236,0.0373473359892766,0,0,0,0.108608537664016,0.0789016634225845,0.143524542450905,0.622231175502141,32.0798454284668
66,10,SRR3989311,free-living,groundwater,Porous Contaminated,-,Banfield,6524186700,3.88,39.53,-107.78,USA,USA 53,Colorado,SRR3989311,PRJNA330350,"Groundwater microbial communities from Rifle, Colorado - Rifle Oxygen_injection B2 metagenome",illumina,NA,243,243,243,304.399993896484,119,138.16667175293,40,79.8333358764648,263.166656494141,430,113.5,366,326.666656494141,171.399993896484,8.93333339691162,18.1166667938232,20.5499992370605,36,0,0.510049511988958,0,0.112123279521863,0.0094450949691236,0.0373473359892766,0,0,0,0.108608537664016,0.0789016634225845,0.143524542450905,0.622231175502141,32.0798454284668
67,10,SRR3989312,free-living,groundwater,Porous Contaminated,-,Banfield,5945105100,3.53,39.53,-107.78,USA,USA 54,Colorado,SRR3989312,PRJNA330339,"Groundwater microbial communities from Rifle, Colorado - Rifle Oxygen_injection A1 metagenome",illumina,NA,243,243,243,304.399993896484,119,138.16667175293,40,79.8333358764648,263.166656494141,430,113.5,366,326.666656494141,171.399993896484,8.93333339691162,18.1166667938232,20.5499992370605,36,0,0.510049511988958,0,0.112123279521863,0.0094450949691236,0.0373473359892766,0,0,0,0.108608537664016,0.0789016634225845,0.143524542450905,0.622231175502141,32.0798454284668
68,10,SRR3989313,free-living,groundwater,Porous Contaminated,-,Banfield,12234980100,7.23,39.53,-107.78,USA,USA 55,Colorado,SRR3989313,PRJNA330348,"Groundwater microbial communities from Rifle, Colorado - Rifle Oxygen_injection A3 metagenome",illumina,NA,243,243,243,304.399993896484,119,138.16667175293,40,79.8333358764648,263.166656494141,430,113.5,366,326.666656494141,171.399993896484,8.93333339691162,18.1166667938232,20.5499992370605,36,0,0.510049511988958,0,0.112123279521863,0.0094450949691236,0.0373473359892766,0,0,0,0.108608537664016,0.0789016634225845,0.143524542450905,0.622231175502141,32.0798454284668
69,10,SRR3989315,free-living,groundwater,Porous Contaminated,-,Banfield,5091951000,3.03,39.534762,-107.782602,USA,USA 56,Colorado,SRR3989315,PRJNA330209,"Groundwater microbial communities from Rifle, Colorado - Rifle Oxygen_injection C3 metagenome",illumina,NA,243,243,243,304.399993896484,119,138.16667175293,40,79.8333358764648,263.166656494141,430,113.5,366,326.666656494141,171.399993896484,8.88333320617676,18.25,20.466667175293,37,0,0.510049511988958,0,0.112123279521863,0.0094450949691236,0.0373473359892766,0,0,0,0.108608537664016,0.0789016634225845,0.143524542450905,0.622231175502141,32.0798454284668
70,14,SRR4343426,free-living,groundwater,Porous Contaminated,-,Seher,111Gbp,7.06,21,21,Chade,Chade 01,Fada,SRR4343426,PRJNA342017,groundwater metagenome Metagenome,illumina,NA,148,148,148,140.199996948242,150.33332824707,87.5,25,80.5,636.833312988281,222.16667175293,33.3333320617676,298.666656494141,265,97,24.7374992370605,15.2583332061768,31.2000007629395,1,0,0.473098069429398,0,0.526901632547379,2.77E-07,0,0,0,0,0,0,0,0.0149999996647239,385.144475301107
71,15,SRR4343427,free-living,groundwater,Porous Contaminated,-,Seher,2230231777,1.2,40.0583,-74.4057,USA,USA 57,New_Jersey,SRR4343427,PRJNA342017,groundwater metagenome Metagenome,illumina,NA,596,596,596,136,182.33332824707,172.16667175293,42,47.8333320617676,647.666687011719,216.5,242.33332824707,311.666656494141,255.83332824707,90,11.4666662216187,10.9833335876465,22.0166664123535,116,0.00961424596607685,0,0.767178287108739,0,0.0826537298659484,0.0345980475346247,0.0298688259596626,0.000926451466511935,8.14E-06,0.0476019363850355,0.027550348546356,0,8.09523709615072,67.5869534810384
72,14,SRR4343428,free-living,groundwater,Porous Contaminated,-,Seher,75Gbp,4.75,21,21,Chade,Chade 02,Fada,SRR4343428,PRJNA342017,groundwater metagenome Metagenome,illumina,NA,148,148,148,140.199996948242,150.33332824707,87.5,25,80.5,636.833312988281,222.16667175293,33.3333320617676,298.666656494141,265,97,24.7374992370605,15.2583332061768,31.2000007629395,1,0,0.473098069429398,0,0.526901632547379,2.77E-07,0,0,0,0,0,0,0,0.0149999996647239,385.144475301107
73,15,SRR4343429,free-living,groundwater,Porous Contaminated,-,Seher,739422547,0.4,40.0583,-74.4057,USA,USA 58,New_Jersey,SRR4343429,PRJNA342017,groundwater metagenome Metagenome,illumina,NA,596,596,596,136,182.33332824707,172.16667175293,42,47.8333320617676,647.666687011719,216.5,242.33332824707,311.666656494141,255.83332824707,90,11.4666662216187,10.9833335876465,22.0166664123535,116,0.00961424596607685,0,0.767178287108739,0,0.0826537298659484,0.0345980475346247,0.0298688259596626,0.000926451466511935,8.14E-06,0.0476019363850355,0.027550348546356,0,8.09523709615072,67.5869534810384
74,14,SRR4343430,free-living,groundwater,Porous Contaminated,-,Seher,58Gbp,3.76,21,21,Chade,Chade 03,Fada,SRR4343430,PRJNA342017,groundwater metagenome Metagenome,illumina,NA,148,148,148,140.199996948242,150.33332824707,87.5,25,80.5,636.833312988281,222.16667175293,33.3333320617676,298.666656494141,265,97,24.7374992370605,15.2583332061768,31.2000007629395,1,0,0.473098069429398,0,0.526901632547379,2.77E-07,0,0,0,0,0,0,0,0.0149999996647239,385.144475301107
75,14,SRR4343431,free-living,groundwater,Porous Contaminated,-,Seher,108.2Mbp,0.085,21,21,Chade,Chade 04,Fada,SRR4343431,PRJNA342017,groundwater metagenome Metagenome,illumina,NA,148,148,148,140.199996948242,150.33332824707,87.5,25,80.5,636.833312988281,222.16667175293,33.3333320617676,298.666656494141,265,97,24.7374992370605,15.2583332061768,31.2000007629395,1,0,0.473098069429398,0,0.526901632547379,2.77E-07,0,0,0,0,0,0,0,0.0149999996647239,385.144475301107
76,14,SRR4343433,free-living,groundwater,Porous Contaminated,-,Seher,96Gbp,6.03,21,21,Chade,Chade 05,Fada,SRR4343433,PRJNA342017,groundwater metagenome Metagenome,illumina,NA,148,148,148,140.199996948242,150.33332824707,87.5,25,80.5,636.833312988281,222.16667175293,33.3333320617676,298.666656494141,265,97,24.7374992370605,15.2583332061768,31.2000007629395,1,0,0.473098069429398,0,0.526901632547379,2.77E-07,0,0,0,0,0,0,0,0.0149999996647239,385.144475301107
77,14,SRR4343434,free-living,groundwater,Porous Contaminated,-,Seher,756.8Mbp,0.404,21,21,Chade,Chade 06,Fada,SRR4343434,PRJNA342017,groundwater metagenome Metagenome,illumina,NA,148,148,148,140.199996948242,150.33332824707,87.5,25,80.5,636.833312988281,222.16667175293,33.3333320617676,298.666656494141,265,97,24.7374992370605,15.2583332061768,31.2000007629395,1,0,0.473098069429398,0,0.526901632547379,2.77E-07,0,0,0,0,0,0,0,0.0149999996647239,385.144475301107
78,16,SRR4343440,free-living,groundwater,Porous Contaminated,-,Seher,149919937,0.11,20,22,Chade,Chade 07,Fada,SRR4343440,PRJNA342017,groundwater metagenome Metagenome,illumina,NA,110,110,110,166.800003051758,132.5,91.3333358764648,31,80,621.833312988281,211.33332824707,36.5,307,265,96.1999969482422,25.3916664123535,15.6999998092651,31.5,3,0,0.332049553593,0,0.667950312296549,1.35E-07,0,0,0,0,0,0,0,0.0224999990314245,129.482107798258
79,17,SRR446575,free-living,groundwater,Porous Contaminated,-,Thomas,8066506290,4.77,39.55,-107.78,USA,USA 59,Colorado,SRR446575,PRJNA114691,Rifle CO Subsurface Groundwater Metagenome,illumina,NA,269,269,269,303.600006103516,143.33332824707,138.16667175293,39,80.6666641235352,264.333343505859,429,NA,366,330.333343505859,170.800003051758,8.92083358764648,18.3083324432373,20.5166664123535,36,0,0.510049511988958,0,0.112123279521863,0.0094450949691236,0.0373473359892766,0,0,0,0.108608537664016,0.0789016634225845,0.143524542450905,0.622231175502141,32.0798454284668
80,17,SRR446576,free-living,groundwater,Porous Contaminated,-,Thomas,7891370930,4.71,39.55,-107.78,USA,USA 60,Colorado,SRR446576,PRJNA114691,Rifle CO Subsurface Groundwater Metagenome,illumina,NA,269,269,269,303.600006103516,143.33332824707,138.16667175293,39,80.6666641235352,264.333343505859,429,NA,366,330.333343505859,170.800003051758,8.92083358764648,18.3083324432373,20.5166664123535,36,0,0.510049511988958,0,0.112123279521863,0.0094450949691236,0.0373473359892766,0,0,0,0.108608537664016,0.0789016634225845,0.143524542450905,0.622231175502141,32.0798454284668
81,17,SRR446577,free-living,groundwater,Porous Contaminated,-,Thomas,7314195090,4.44,39.55,-107.78,USA,USA 61,Colorado,SRR446577,PRJNA114691,Rifle CO Subsurface Groundwater Metagenome,illumina,NA,269,269,269,303.600006103516,143.33332824707,138.16667175293,39,80.6666641235352,264.333343505859,429,NA,366,330.333343505859,170.800003051758,8.92083358764648,18.3083324432373,20.5166664123535,36,0,0.510049511988958,0,0.112123279521863,0.0094450949691236,0.0373473359892766,0,0,0,0.108608537664016,0.0789016634225845,0.143524542450905,0.622231175502141,32.0798454284668
82,18,SRR5248198,free-living,groundwater,Porous Contaminated,-,Reiss,16173928500,9.99,36.000305,-106.072539,USA,USA 62,New_Mexico,SRR5248198,PRJNA366142,"Bioremediated contaminated groundwater from EPA Superfund site, New Mexico - Sample SAE3-23 metagenome",illumina,NA,114,114,114,199.199996948242,61.5,88.1666641235352,23,82.1666641235352,591.5,209.16667175293,49.1666679382324,293.833343505859,235.33332824707,121.199996948242,11.1666660308838,18.3500003814697,21.5499992370605,50,0,0.222301212449869,0,0.0789744953314463,0.00914131353298823,0.0155388990727564,0,0,0,0.0229006977751851,0,0.651143362124761,0.667092442512512,53.603214263916
83,18,SRR5248199,free-living,groundwater,Porous Contaminated,-,Reiss,12220903200,7.4,36.000305,-106.072539,USA,USA 63,New_Mexico,SRR5248199,PRJNA366143,"Bioremediated contaminated groundwater from EPA Superfund site, New Mexico - Sample SAE3-47 metagenome",illumina,NA,114,114,114,199.199996948242,61.5,88.1666641235352,23,82.1666641235352,591.5,209.16667175293,49.1666679382324,293.833343505859,235.33332824707,121.199996948242,11.1666660308838,18.3500003814697,21.5499992370605,50,0,0.222301212449869,0,0.0789744953314463,0.00914131353298823,0.0155388990727564,0,0,0,0.0229006977751851,0,0.651143362124761,0.667092442512512,53.603214263916
84,18,SRR5248218,free-living,groundwater,Porous Contaminated,-,Reiss,19627744800,12.15,36.000305,-106.072539,USA,USA 64,New_Mexico,SRR5248218,PRJNA366144,"Bioremediated contaminated groundwater from EPA Superfund site, New Mexico - Sample HSE6-05 metagenome",illumina,NA,114,114,114,199.199996948242,61.5,88.1666641235352,23,82.1666641235352,591.5,209.16667175293,49.1666679382324,293.833343505859,235.33332824707,121.199996948242,11.1666660308838,18.3500003814697,21.5499992370605,50,0,0.222301212449869,0,0.0789744953314463,0.00914131353298823,0.0155388990727564,0,0,0,0.0229006977751851,0,0.651143362124761,0.667092442512512,53.603214263916
85,18,SRR5248219,free-living,groundwater,Porous Contaminated,-,Reiss,17544272700,11.06,36.000305,-106.072539,USA,USA 65,New_Mexico,SRR5248219,PRJNA366145,"Bioremediated contaminated groundwater from EPA Superfund site, New Mexico - Sample HSE6-23 metagenome",illumina,NA,114,114,114,199.199996948242,61.5,88.1666641235352,23,82.1666641235352,591.5,209.16667175293,49.1666679382324,293.833343505859,235.33332824707,121.199996948242,11.1666660308838,18.3500003814697,21.5499992370605,50,0,0.222301212449869,0,0.0789744953314463,0.00914131353298823,0.0155388990727564,0,0,0,0.0229006977751851,0,0.651143362124761,0.667092442512512,53.603214263916
86,6,SRR5435972,free-living,groundwater,Geyser,-,Banfield,215GBp,9.64,38.938,-110.134,USA,USA 66,Utah,SRR5435972,PRJNA365670,Groundwater microbial communities from aquifer in Utah USA,illumina,NA,101,101,101,168.600006103516,61.8333320617676,54.8333320617676,8,83.3333358764648,512.5,316.833343505859,NA,294.666656494141,229.83332824707,123.199996948242,11.875,18.0833339691162,24.7333335876465,25,0,0.333496153354645,0,0.074790654083093,6.40E-06,0.00255553160483638,0.00211127680571129,9.65E-05,2.11E-05,0.00165200146147981,0,0.585270414749781,0.329818656047185,54.2155596415202
87,6,SRR5435975,free-living,groundwater,Geyser,-,Banfield,205Gbp,8.9,38.938,-110.134,USA,USA 67,Utah,SRR5435975,PRJNA365669,Groundwater microbial communities from aquifer in Utah USA,illumina,NA,101,101,101,168.600006103516,61.8333320617676,54.8333320617676,8,83.3333358764648,512.5,316.833343505859,NA,294.666656494141,229.83332824707,123.199996948242,11.875,18.0833339691162,24.7333335876465,25,0,0.333496153354645,0,0.074790654083093,6.40E-06,0.00255553160483638,0.00211127680571129,9.65E-05,2.11E-05,0.00165200146147981,0,0.585270414749781,0.329818656047185,54.2155596415202
88,19,SRR5468912,free-living,groundwater,Geyser,-,Banfield,15988242098,7.19,38.836269,-106.947211,USA,USA 68,Colorado,SRR5468912,PRJNA367347,"Groundwater sediment microbial communities from an aquifer in East River, Colorado, USA - East River MetaG ERMZT100 metagenome",illumina,NA,540,540,540,247.600006103516,284.5,223,70,64,306.833343505859,446.666656494141,257.333343505859,378,330.333343505859,162.600006103516,0.995833337306976,18.1083335876465,12.1333332061768,57,0.0448142265280088,0,0.638194183508555,0,0.000252155638008844,0.0658257616062959,0,0,0,0.0153068921839197,0.0885541439056396,0.147052615880966,3.04045752684275,69.5460815429688
89,19,SRR5468955,free-living,groundwater,Geyser,-,Banfield,12882259678,5.56,38.836269,-106.947211,USA,USA 69,Colorado,SRR5468955,PRJNA367349,"Groundwater sediment microbial communities from an aquifer in East River, Colorado, USA - East River MetaG ERMLT700 metagenome",illumina,NA,540,540,540,247.600006103516,284.5,223,70,64,306.833343505859,446.666656494141,257.333343505859,378,330.333343505859,162.600006103516,0.995833337306976,18.1083335876465,12.1333332061768,57,0.0448142265280088,0,0.638194183508555,0,0.000252155638008844,0.0658257616062959,0,0,0,0.0153068921839197,0.0885541439056396,0.147052615880966,3.04045752684275,69.5460815429688
90,19,SRR5468956,free-living,groundwater,Geyser,-,Banfield,13254028020,5.88,38.836269,-106.947211,USA,USA 70,Colorado,SRR5468956,PRJNA367350,"Groundwater sediment microbial communities from an aquifer in East River, Colorado, USA - East River MetaG ERMLT890 metagenome",illumina,NA,540,540,540,247.600006103516,284.5,223,70,64,306.833343505859,446.666656494141,257.333343505859,378,330.333343505859,162.600006103516,0.995833337306976,18.1083335876465,12.1333332061768,57,0.0448142265280088,0,0.638194183508555,0,0.000252155638008844,0.0658257616062959,0,0,0,0.0153068921839197,0.0885541439056396,0.147052615880966,3.04045752684275,69.5460815429688
91,19,SRR5468957,free-living,groundwater,Geyser,-,Banfield,6340837602,2.91,38.836269,-106.947211,USA,USA 71,Colorado,SRR5468957,PRJNA367348,"Groundwater sediment microbial communities from an aquifer in East River, Colorado, USA - East River MetaG ERMZT299 metagenome",illumina,NA,540,540,540,247.600006103516,284.5,223,70,64,306.833343505859,446.666656494141,257.333343505859,378,330.333343505859,162.600006103516,0.995833337306976,18.1083335876465,12.1333332061768,57,0.0448142265280088,0,0.638194183508555,0,0.000252155638008844,0.0658257616062959,0,0,0,0.0153068921839197,0.0885541439056396,0.147052615880966,3.04045752684275,69.5460815429688
92,6,SRR5487649,free-living,groundwater,Geyser,-,Banfield,127Gbp,5.42,38.938,-110.134,USA,USA 72,Utah,SRR5487649,PRJNA375480,Groundwater microbial communities from aquifer in Utah USA,illumina,NA,101,101,101,168.600006103516,61.8333320617676,54.8333320617676,8,83.3333358764648,512.5,316.833343505859,NA,294.666656494141,229.83332824707,123.199996948242,11.875,18.0833339691162,24.7333335876465,25,0,0.333496153354645,0,0.074790654083093,6.40E-06,0.00255553160483638,0.00211127680571129,9.65E-05,2.11E-05,0.00165200146147981,0,0.585270414749781,0.329818656047185,54.2155596415202
93,6,SRR5487652,free-living,groundwater,Geyser,-,Banfield,12.2Gbp,4.93,38.938,-110.134,USA,USA 73,Utah,SRR5487652,PRJNA375483,Groundwater microbial communities from aquifer in Utah USA,illumina,NA,101,101,101,168.600006103516,61.8333320617676,54.8333320617676,8,83.3333358764648,512.5,316.833343505859,NA,294.666656494141,229.83332824707,123.199996948242,11.875,18.0833339691162,24.7333335876465,25,0,0.333496153354645,0,0.074790654083093,6.40E-06,0.00255553160483638,0.00211127680571129,9.65E-05,2.11E-05,0.00165200146147981,0,0.585270414749781,0.329818656047185,54.2155596415202
94,6,SRR5487656,free-living,groundwater,Geyser,-,Banfield,102Gbp,4.16,38.938,-110.134,USA,USA 74,Utah,SRR5487656,PRJNA375484,Groundwater microbial communities from aquifer in Utah USA,illumina,NA,101,101,101,168.600006103516,61.8333320617676,54.8333320617676,8,83.3333358764648,512.5,316.833343505859,NA,294.666656494141,229.83332824707,123.199996948242,11.875,18.0833339691162,24.7333335876465,25,0,0.333496153354645,0,0.074790654083093,6.40E-06,0.00255553160483638,0.00211127680571129,9.65E-05,2.11E-05,0.00165200146147981,0,0.585270414749781,0.329818656047185,54.2155596415202
95,6,SRR5487657,free-living,groundwater,Geyser,-,Banfield,130Gbp,5.37,38.938,-110.134,USA,USA 75,Utah,SRR5487657,PRJNA375485,Groundwater microbial communities from aquifer in Utah USA,illumina,NA,101,101,101,168.600006103516,61.8333320617676,54.8333320617676,8,83.3333358764648,512.5,316.833343505859,NA,294.666656494141,229.83332824707,123.199996948242,11.875,18.0833339691162,24.7333335876465,25,0,0.333496153354645,0,0.074790654083093,6.40E-06,0.00255553160483638,0.00211127680571129,9.65E-05,2.11E-05,0.00165200146147981,0,0.585270414749781,0.329818656047185,54.2155596415202
96,6,SRR6050920,free-living,groundwater,Geyser,-,Banfield,116Gbp,5,38.938,-110.134,USA,USA 76,Utah,SRR6050920,PRJNA405973,Groundwater microbial communities from aquifer in Utah USA,illumina,NA,101,101,101,168.600006103516,61.8333320617676,54.8333320617676,8,83.3333358764648,512.5,316.833343505859,NA,294.666656494141,229.83332824707,123.199996948242,11.875,18.0833339691162,24.7333335876465,25,0,0.333496153354645,0,0.074790654083093,6.40E-06,0.00255553160483638,0.00211127680571129,9.65E-05,2.11E-05,0.00165200146147981,0,0.585270414749781,0.329818656047185,54.2155596415202
97,6,SRR6050958,free-living,groundwater,Geyser,-,Banfield,111Gbp,4.74,38.938,-110.134,USA,USA 77,Utah,SRR6050958,PRJNA405975,Groundwater microbial communities from aquifer in Utah USA,illumina,NA,101,101,101,168.600006103516,61.8333320617676,54.8333320617676,8,83.3333358764648,512.5,316.833343505859,NA,294.666656494141,229.83332824707,123.199996948242,11.875,18.0833339691162,24.7333335876465,25,0,0.333496153354645,0,0.074790654083093,6.40E-06,0.00255553160483638,0.00211127680571129,9.65E-05,2.11E-05,0.00165200146147981,0,0.585270414749781,0.329818656047185,54.2155596415202
98,6,SRR6050961,free-living,groundwater,Geyser,-,Banfield,119Gbp,5.04,38.938,-110.134,USA,USA 78,Utah,SRR6050961,PRJNA405974,Groundwater microbial communities from aquifer in Utah USA,illumina,NA,101,101,101,168.600006103516,61.8333320617676,54.8333320617676,8,83.3333358764648,512.5,316.833343505859,NA,294.666656494141,229.83332824707,123.199996948242,11.875,18.0833339691162,24.7333335876465,25,0,0.333496153354645,0,0.074790654083093,6.40E-06,0.00255553160483638,0.00211127680571129,9.65E-05,2.11E-05,0.00165200146147981,0,0.585270414749781,0.329818656047185,54.2155596415202
99,6,SRR6051235,free-living,groundwater,Geyser,-,Banfield,193Gbp,9.28,38.938,-110.134,USA,USA 79,Utah,SRR6051235,PRJNA405979,Groundwater microbial communities from aquifer in Utah USA,illumina,NA,101,101,101,168.600006103516,61.8333320617676,54.8333320617676,8,83.3333358764648,512.5,316.833343505859,NA,294.666656494141,229.83332824707,123.199996948242,11.875,18.0833339691162,24.7333335876465,25,0,0.333496153354645,0,0.074790654083093,6.40E-06,0.00255553160483638,0.00211127680571129,9.65E-05,2.11E-05,0.00165200146147981,0,0.585270414749781,0.329818656047185,54.2155596415202
100,6,SRR6051236,free-living,groundwater,Geyser,-,Banfield,179Gbp,8.66,38.938,-110.134,USA,USA 80,Utah,SRR6051236,PRJNA405980,Groundwater microbial communities from aquifer in Utah USA,illumina,NA,101,101,101,168.600006103516,61.8333320617676,54.8333320617676,8,83.3333358764648,512.5,316.833343505859,NA,294.666656494141,229.83332824707,123.199996948242,11.875,18.0833339691162,24.7333335876465,25,0,0.333496153354645,0,0.074790654083093,6.40E-06,0.00255553160483638,0.00211127680571129,9.65E-05,2.11E-05,0.00165200146147981,0,0.585270414749781,0.329818656047185,54.2155596415202
101,6,SRR6051345,free-living,groundwater,Geyser,-,Banfield,205Gbp,10.09,38.938,-110.134,USA,USA 81,Utah,SRR6051345,PRJNA405981,Groundwater microbial communities from aquifer in Utah USA,illumina,NA,101,101,101,168.600006103516,61.8333320617676,54.8333320617676,8,83.3333358764648,512.5,316.833343505859,NA,294.666656494141,229.83332824707,123.199996948242,11.875,18.0833339691162,24.7333335876465,25,0,0.333496153354645,0,0.074790654083093,6.40E-06,0.00255553160483638,0.00211127680571129,9.65E-05,2.11E-05,0.00165200146147981,0,0.585270414749781,0.329818656047185,54.2155596415202
102,6,SRR6051694,free-living,groundwater,Geyser,-,Banfield,179Gbp,8.66,38.938,-110.134,USA,USA 82,Utah,SRR6051694,PRJNA405986,Groundwater microbial communities from aquifer in Utah USA,illumina,NA,101,101,101,168.600006103516,61.8333320617676,54.8333320617676,8,83.3333358764648,512.5,316.833343505859,NA,294.666656494141,229.83332824707,123.199996948242,11.875,18.0833339691162,24.7333335876465,25,0,0.333496153354645,0,0.074790654083093,6.40E-06,0.00255553160483638,0.00211127680571129,9.65E-05,2.11E-05,0.00165200146147981,0,0.585270414749781,0.329818656047185,54.2155596415202
103,6,SRR6051698,free-living,groundwater,Geyser,-,Banfield,180Gbp,8.42,38.938,-110.134,USA,USA 83,Utah,SRR6051698,PRJNA405990,Groundwater microbial communities from aquifer in Utah USA,illumina,NA,101,101,101,168.600006103516,61.8333320617676,54.8333320617676,8,83.3333358764648,512.5,316.833343505859,NA,294.666656494141,229.83332824707,123.199996948242,11.875,18.0833339691162,24.7333335876465,25,0,0.333496153354645,0,0.074790654083093,6.40E-06,0.00255553160483638,0.00211127680571129,9.65E-05,2.11E-05,0.00165200146147981,0,0.585270414749781,0.329818656047185,54.2155596415202
104,6,SRR6240743,free-living,groundwater,Geyser,-,Banfield,119Gbp,4.98,38.938,-110.134,USA,USA 84,Utah,SRR6240743,PRJNA416578,Groundwater microbial communities from aquifer in Utah USA,illumina,NA,101,101,101,168.600006103516,61.8333320617676,54.8333320617676,8,83.3333358764648,512.5,316.833343505859,NA,294.666656494141,229.83332824707,123.199996948242,11.875,18.0833339691162,24.7333335876465,25,0,0.333496153354645,0,0.074790654083093,6.40E-06,0.00255553160483638,0.00211127680571129,9.65E-05,2.11E-05,0.00165200146147981,0,0.585270414749781,0.329818656047185,54.2155596415202
105,6,SRR6240745,free-living,groundwater,Geyser,-,Banfield,11.6Gbp,4.99,38.938,-110.134,USA,USA 85,Utah,SRR6240745,PRJNA416580,Groundwater microbial communities from aquifer in Utah USA,illumina,NA,101,101,101,168.600006103516,61.8333320617676,54.8333320617676,8,83.3333358764648,512.5,316.833343505859,NA,294.666656494141,229.83332824707,123.199996948242,11.875,18.0833339691162,24.7333335876465,25,0,0.333496153354645,0,0.074790654083093,6.40E-06,0.00255553160483638,0.00211127680571129,9.65E-05,2.11E-05,0.00165200146147981,0,0.585270414749781,0.329818656047185,54.2155596415202
106,6,SRR6240752,free-living,groundwater,Geyser,-,Banfield,14.3Gbp,6.43,38.938,-110.134,USA,USA 86,Utah,SRR6240752,PRJNA416581,Groundwater microbial communities from aquifer in Utah USA,illumina,NA,101,101,101,168.600006103516,61.8333320617676,54.8333320617676,8,83.3333358764648,512.5,316.833343505859,NA,294.666656494141,229.83332824707,123.199996948242,11.875,18.0833339691162,24.7333335876465,25,0,0.333496153354645,0,0.074790654083093,6.40E-06,0.00255553160483638,0.00211127680571129,9.65E-05,2.11E-05,0.00165200146147981,0,0.585270414749781,0.329818656047185,54.2155596415202
107,6,SRR6240782,free-living,groundwater,Geyser,-,Banfield,118Gbp,5.1,38.938,-110.134,USA,USA 87,Utah,SRR6240782,PRJNA416584,Groundwater microbial communities from aquifer in Utah USA,illumina,NA,101,101,101,168.600006103516,61.8333320617676,54.8333320617676,8,83.3333358764648,512.5,316.833343505859,NA,294.666656494141,229.83332824707,123.199996948242,11.875,18.0833339691162,24.7333335876465,25,0,0.333496153354645,0,0.074790654083093,6.40E-06,0.00255553160483638,0.00211127680571129,9.65E-05,2.11E-05,0.00165200146147981,0,0.585270414749781,0.329818656047185,54.2155596415202
108,6,SRR6240785,free-living,groundwater,Geyser,-,Banfield,146Gbp,6.61,38.938,-110.134,USA,USA 88,Utah,SRR6240785,PRJNA416589,Groundwater microbial communities from aquifer in Utah USA,illumina,NA,101,101,101,168.600006103516,61.8333320617676,54.8333320617676,8,83.3333358764648,512.5,316.833343505859,NA,294.666656494141,229.83332824707,123.199996948242,11.875,18.0833339691162,24.7333335876465,25,0,0.333496153354645,0,0.074790654083093,6.40E-06,0.00255553160483638,0.00211127680571129,9.65E-05,2.11E-05,0.00165200146147981,0,0.585270414749781,0.329818656047185,54.2155596415202
109,20,SRR7193715,free-living,groundwater,Subsurface saline,-,Dopson,11277564137,5.06,61.235625,21.475795,Finland,Finland 03,Eurajoki,SRR7193715,PRJNA472439,"Groundwater microbial communities from the Olkiluoto Island deep subsurface site, Finland - KR46_J_MetaG metagenome",illumina,10.1038/s41396-020-0602-x,998,998,998,244.399993896484,506.333343505859,399.333343505859,121,53,381.333343505859,373.5,NA,401.833343505859,318.166656494141,182.399993896484,4.85833311080933,6.09999990463257,14.8000001907349,68,0,0.275505448381106,0,0.00675795607579251,0.00654299945260088,0.0110496071477731,0,1.74E-05,0,5.26E-05,3.98E-05,2.21E-06,0,50.2264442443848
